[{"OBJECT_NAME":"TIANMU-1 19","OBJECT_ID":"2023-208A","EPOCH":"2026-03-09T22:13:36.801696","MEAN_MOTION":15.2984143,"ECCENTRICITY":0.00039292,"INCLINATION":97.4383,"RA_OF_ASC_NODE":184.9132,"ARG_OF_PERICENTER":316.2611,"MEAN_ANOMALY":43.8317,"EPHEMERIS_TYPE":0,"CLASSIFICATION_TYPE":"U","NORAD_CAT_ID":58660,"ELEMENT_SET_NO":999,"REV_AT_EPOCH":12214,"BSTAR":0.00040995676,"MEAN_MOTION_DOT":0.00011779,"MEAN_MOTION_DDOT":0},{"OBJECT_NAME":"STARLINK-31860","OBJECT_ID":"2024-084S","EPOCH":"2026-03-09T07:11:40.715520","MEAN_MOTION":15.27576635,"ECCENTRICITY":0.0001168,"INCLINATION":43.0038,"RA_OF_ASC_NODE":40.5216,"ARG_OF_PERICENTER":233.4402,"MEAN_ANOMALY":126.6342,"EPHEMERIS_TYPE":0,"CLASSIFICATION_TYPE":"U","NORAD_CAT_ID":59670,"ELEMENT_SET_NO":999,"REV_AT_EPOCH":10433,"BSTAR":1.1821712e-5,"MEAN_MOTION_DOT":6.3e-7,"MEAN_MOTION_DDOT":0}]
